MEAN_MOTION;ECCENTRICITY;INCLINATION;RA_OF_ASC_NODE;ARG_OF_PERICENTER;MEAN_ANOMALY;BSTAR;MEAN_MOTION_DOT;MEAN_MOTION_DDOT;TYPE
14.32792442;0.0002938;45.0081;233.4371;30.8473;329.2545;7.0783E-5;5.4E-7;0;Orbcomm
14.32792835;0.0002866;45.0082;228.5207;36.9325;323.1718;6.4902E-5;3.8E-7;0;Orbcomm
14.32793337;0.000277;45.0083;223.6042;43.0915;317.0148;6.5537E-5;4.0E-7;0;Orbcomm
14.32793337;0.000277;45.0083;223.6042;43.0915;317.0148;6.5537E-5;4.0E-7;0;Orbcomm
14.32793599;0.000272;45.0083;220.6542;46.9698;313.1376;6.5869E-5;4.0E-7;0;Orbcomm
14.32793689;0.000271;45.0083;219.6709;48.254;311.8538;6.73E-5;4.4E-7;0;Orbcomm
14.32794021;0.0002644;45.0083;216.0654;53.0365;307.0723;6.9258E-5;5.0E-7;0;Orbcomm
14.32794119;0.0002633;45.0083;215.0822;54.351;305.7581;7.1461E-5;5.6E-7;0;Orbcomm
14.32794536;0.000255;45.0083;210.1658;61.1122;298.998;7.5019E-5;6.6E-7;0;Orbcomm
14.32794941;0.0002521;45.0083;206.8881;65.6345;294.4764;8.1522E-5;8.4E-7;0;Orbcomm
14.32795404;0.0002467;45.0083;202.2993;72.1826;287.929;8.6204E-5;9.6E-7;0;Orbcomm
14.32796041;0.0002424;45.0083;196.0719;81.0663;279.0457;8.6488E-5;9.7E-7;0;Orbcomm
14.32796445;0.0002392;45.0084;191.4832;87.7965;272.3155;8.169E-5;8.4E-7;0;Orbcomm
14.32796851;0.000237;45.0085;186.5667;95.414;264.6976;7.6803E-5;7.1E-7;0;Orbcomm
14.32797119;0.0002366;45.0086;183.2891;100.2913;259.82;7.4644E-5;6.5E-7;0;Orbcomm
14.3279733;0.0002364;45.0086;180.3393;104.4379;255.673;7.2137E-5;5.8E-7;0;Orbcomm
14.32797425;0.0002368;45.0086;178.3728;107.4478;252.6628;6.9043E-5;4.9E-7;0;Orbcomm
14.32797614;0.0002367;45.0086;175.4229;111.8349;248.2749;6.8316E-5;4.7E-7;0;Orbcomm
14.32797711;0.000237;45.0086;173.4564;114.7505;245.3588;6.6466E-5;4.2E-7;0;Orbcomm
14.3279788;0.0002372;45.0085;170.5065;119.0377;241.0707;6.5314E-5;3.9E-7;0;Orbcomm
14.32797973;0.0002385;45.0085;168.8678;121.3629;238.7451;6.4366E-5;3.6E-7;0;Orbcomm
14.32798365;0.0002415;45.0084;164.2792;127.8906;232.2159;6.8066E-5;4.7E-7;0;Orbcomm
14.32798422;0.0002422;45.0083;163.6236;128.7573;231.349;6.8393E-5;4.7E-7;0;Orbcomm
14.32798984;0.0002443;45.0083;158.7073;135.3656;224.7387;7.7633E-5;7.3E-7;0;Orbcomm
14.32799349;0.000248;45.0082;155.1018;140.4534;219.6493;7.996E-5;7.9E-7;0;Orbcomm
14.32799691;0.0002507;45.0082;151.8241;144.911;215.1902;7.9901E-5;7.9E-7;0;Orbcomm
14.32799905;0.0002528;45.0082;150.1853;146.9685;213.1319;8.2335E-5;8.6E-7;0;Orbcomm
14.32800098;0.0002543;45.0082;148.2187;149.5626;210.5368;8.1195E-5;8.3E-7;0;Orbcomm
14.32800358;0.0002571;45.0082;145.5966;152.9181;207.18;8.2274E-5;8.6E-7;0;Orbcomm
14.32800684;0.0002607;45.0082;142.3189;157.1687;202.9276;8.3291E-5;8.8E-7;0;Orbcomm
14.3280082;0.0002626;45.0082;141.0079;158.748;201.3476;8.4702E-5;9.2E-7;0;Orbcomm
14.32801311;0.0002686;45.0082;136.4191;164.3247;195.7683;9.0144E-5;1.07E-6;0;Orbcomm
14.32801553;0.000271;45.0082;134.1247;167.1244;192.9672;9.1832E-5;1.12E-6;0;Orbcomm
14.32801883;0.0002747;45.0081;131.5026;170.0726;190.0175;9.632E-5;1.24E-6;0;Orbcomm
14.3280192;0.0002753;45.0081;131.1748;170.4353;189.6546;9.6204E-5;1.24E-6;0;Orbcomm
14.32802075;0.0002772;45.0082;129.5359;172.4551;187.6338;9.5258E-5;1.21E-6;0;Orbcomm
14.32802547;0.0002829;45.0082;124.9471;177.5924;182.4936;9.3084E-5;1.15E-6;0;Orbcomm
14.32802659;0.0002854;45.0081;123.636;178.9902;181.0951;9.0686E-5;1.09E-6;0;Orbcomm
14.32803016;0.0002896;45.0081;120.0305;182.9665;177.1164;8.6223E-5;9.7E-7;0;Orbcomm
14.32803248;0.0002933;45.0081;117.4083;185.6011;174.4803;8.0122E-5;8.0E-7;0;Orbcomm
14.32803446;0.0002955;45.0081;115.4417;187.7812;172.2988;7.8225E-5;7.5E-7;0;Orbcomm
14.3280375;0.0002992;45.0081;112.8195;190.3347;169.7438;7.6696E-5;7.0E-7;0;Orbcomm
14.32804022;0.0003028;45.0081;110.1972;193.11;166.9667;7.5488E-5;6.7E-7;0;Orbcomm
14.32804309;0.000305;45.0082;108.2306;194.9585;165.1172;7.9702E-5;7.9E-7;0;Orbcomm
14.32804609;0.0003095;45.0082;105.2805;197.9619;162.1118;7.9654E-5;7.9E-7;0;Orbcomm
14.32804867;0.0003122;45.0083;103.3139;199.8049;160.2677;8.4109E-5;9.1E-7;0;Orbcomm
14.32805156;0.0003164;45.0083;100.3638;202.657;157.4137;8.553E-5;9.5E-7;0;Orbcomm
14.32805535;0.000321;45.0085;96.4304;206.4155;153.6528;8.8667E-5;1.03E-6;0;Orbcomm
14.32805628;0.0003227;45.0085;95.4471;207.2452;152.8225;8.7736E-5;1.01E-6;0;Orbcomm
14.32805779;0.0003229;45.0085;94.1361;208.4331;151.6339;9.0142E-5;1.07E-6;0;Orbcomm
14.32806291;0.0003283;45.0087;89.5473;212.5532;147.5112;9.3409E-5;1.16E-6;0;Orbcomm
14.32807022;0.0003349;45.009;82.3364;218.9573;141.1032;8.8208E-5;1.02E-6;0;Orbcomm
14.32807508;0.0003373;45.0091;77.7477;222.8452;137.2132;8.3682E-5;9.0E-7;0;Orbcomm
14.32807752;0.0003386;45.0092;75.7812;224.39;135.6675;8.2346E-5;8.6E-7;0;Orbcomm
14.32808516;0.000345;45.0094;68.8981;230.233;129.8212;7.8097E-5;7.4E-7;0;Orbcomm
14.32808548;0.0003454;45.0094;68.5703;230.4683;129.5859;7.7662E-5;7.3E-7;0;Orbcomm
14.32809026;0.0003486;45.0096;63.9816;234.3829;125.6693;7.8103E-5;7.4E-7;0;Orbcomm
14.32809061;0.000349;45.0096;63.6538;234.5897;125.4623;7.7935E-5;7.4E-7;0;Orbcomm
14.32809491;0.000351;45.0097;59.3929;238.0479;122.0026;8.1729E-5;8.4E-7;0;Orbcomm
14.32809608;0.0003513;45.0098;58.0819;238.9456;121.1046;8.209E-5;8.5E-7;0;Orbcomm
14.32809916;0.0003526;45.0099;54.8042;241.5974;118.4517;8.529E-5;9.4E-7;0;Orbcomm
14.32810027;0.0003522;45.0099;53.1654;242.7485;117.3003;8.4861E-5;9.3E-7;0;Orbcomm
14.32810056;0.0003528;45.0099;52.5099;243.3952;116.6533;8.3771E-5;9.0E-7;0;Orbcomm
14.32810471;0.0003536;45.0101;47.9213;246.9595;113.0878;8.4971E-5;9.3E-7;0;Orbcomm
14.32810707;0.0003546;45.0102;44.9714;249.2161;110.8305;8.2334E-5;8.6E-7;0;Orbcomm
14.32810899;0.0003547;45.0102;43.3327;250.5101;109.5362;8.3695E-5;9.0E-7;0;Orbcomm
14.32811144;0.0003553;45.0103;40.7106;252.5471;107.4987;8.1937E-5;8.5E-7;0;Orbcomm
14.32811437;0.0003556;45.0104;36.4499;255.8202;104.2249;7.3693E-5;6.2E-7;0;Orbcomm
14.32811574;0.0003548;45.0105;34.4834;257.2834;102.7616;6.9991E-5;5.2E-7;0;Orbcomm
14.32811877;0.0003549;45.0106;30.8781;260.0205;100.0241;6.6481E-5;4.2E-7;0;Orbcomm
14.32812033;0.0003543;45.0106;29.2395;261.2888;98.7557;6.7368E-5;4.5E-7;0;Orbcomm
14.32812282;0.0003544;45.0106;26.2897;263.4927;96.5516;6.6957E-5;4.4E-7;0;Orbcomm
14.32812655;0.0003522;45.0106;21.3734;267.1258;92.9185;6.8074E-5;4.7E-7;0;Orbcomm
14.32812722;0.0003512;45.0106;20.3902;267.9066;92.1378;6.8657E-5;4.8E-7;0;Orbcomm
14.32812768;0.000351;45.0106;20.0625;268.1543;91.8901;6.9719E-5;5.1E-7;0;Orbcomm
14.32813319;0.0003477;45.0105;12.524;273.5803;86.4646;7.3851E-5;6.3E-7;0;Orbcomm
14.32813358;0.0003476;45.0105;12.1963;273.8255;86.2193;7.4858E-5;6.5E-7;0;Orbcomm
14.32813446;0.000347;45.0104;11.213;274.6144;85.4306;7.6183E-5;6.9E-7;0;Orbcomm
14.32813807;0.0003447;45.0104;7.6076;277.197;82.8485;7.8342E-5;7.5E-7;0;Orbcomm
14.32814167;0.0003429;45.0104;4.33;279.7159;80.33;8.0854E-5;8.2E-7;0;Orbcomm
14.32814355;0.0003409;45.0104;2.6912;280.8294;79.2169;8.0981E-5;8.2E-7;0;Orbcomm
14.3281447;0.0003399;45.0103;1.708;281.634;78.4124;8.1249E-5;8.3E-7;0;Orbcomm
14.3281488;0.0003381;45.0104;358.1025;284.24;75.8071;8.0737E-5;8.2E-7;0;Orbcomm
14.32815323;0.0003346;45.0103;353.8416;287.3773;72.6707;7.7163E-5;7.2E-7;0;Orbcomm
14.32815364;0.0003345;45.0103;353.5139;287.6361;72.4119;7.7662E-5;7.3E-7;0;Orbcomm
14.3281591;0.0003298;45.0102;348.5975;291.1389;68.9105;7.8106E-5;7.4E-7;0;Orbcomm
14.3281599;0.000329;45.0102;347.942;291.6822;68.3674;7.8738E-5;7.6E-7;0;Orbcomm
14.3281638;0.0003239;45.0101;343.6811;294.6115;65.4394;7.8505E-5;7.5E-7;0;Orbcomm
14.32816434;0.000323;45.0101;343.0257;295.0309;65.0202;7.8047E-5;7.4E-7;0;Orbcomm
14.32816741;0.0003173;45.01;338.437;298.4563;61.5963;7.5876E-5;6.8E-7;0;Orbcomm
14.32816915;0.0003127;45.0098;333.8483;301.9748;58.0794;6.9524E-5;5.1E-7;0;Orbcomm
14.32817094;0.0003061;45.0097;329.5872;304.9577;55.0982;6.359E-5;3.4E-7;0;Orbcomm
14.32817196;0.0003028;45.0097;326.965;306.8262;53.2306;5.8965E-5;2.2E-7;0;Orbcomm
14.32817448;0.0002996;45.0096;324.9985;308.4243;51.6334;6.412E-5;3.6E-7;0;Orbcomm
14.32817478;0.0002991;45.0096;324.6707;308.6647;51.3932;6.419E-5;3.6E-7;0;Orbcomm
14.32817696;0.0002941;45.0096;321.0651;311.3199;48.7394;5.8831E-5;2.1E-7;0;Orbcomm
14.32817764;0.0002931;45.0096;320.4096;311.8699;48.1897;5.9636E-5;2.3E-7;0;Orbcomm
14.3281804;0.0002863;45.0096;316.1486;314.9439;45.1175;5.4903E-5;1.0E-7;0;Orbcomm
14.32818068;0.000286;45.0095;315.8208;315.2482;44.8133;5.5391E-5;1.2E-7;0;Orbcomm
14.32818452;0.000278;45.0095;311.2319;318.4454;41.6181;5.5997E-5;1.3E-7;0;Orbcomm
14.32818477;0.0002777;45.0095;310.9041;318.7487;41.315;5.61E-5;1.4E-7;0;Orbcomm
14.32818828;0.0002715;45.0095;306.3154;322.5396;37.5261;5.6971E-5;1.6E-7;0;Orbcomm
14.32818852;0.000271;45.0095;305.9876;322.793;37.2728;5.6923E-5;1.6E-7;0;Orbcomm
14.32819174;0.0002637;45.0095;301.7266;325.9752;34.0925;5.9132E-5;2.2E-7;0;Orbcomm
14.32819402;0.0002588;45.0094;298.7766;328.0512;32.0177;6.1422E-5;2.8E-7;0;Orbcomm
14.32819502;0.0002558;45.0094;297.1379;329.5431;30.5266;6.064E-5;2.6E-7;0;Orbcomm
14.32819848;0.0002487;45.0093;292.5492;333.5045;26.5674;6.3068E-5;3.3E-7;0;Orbcomm
14.3281987;0.0002482;45.0093;292.2214;333.8003;26.2718;6.2814E-5;3.2E-7;0;Orbcomm
14.32820261;0.0002401;45.0092;287.6326;337.59;22.4841;6.4384E-5;3.7E-7;0;Orbcomm
14.32820261;0.0002401;45.0092;287.6326;337.59;22.4841;6.4384E-5;3.7E-7;0;Orbcomm
14.32820543;0.0002339;45.0092;284.3548;340.1567;19.9188;6.3546E-5;3.4E-7;0;Orbcomm
14.32820648;0.0002315;45.0091;283.0438;341.3774;18.6987;6.3082E-5;3.3E-7;0;Orbcomm
14.3282086;0.0002266;45.0091;280.4216;343.2946;16.7825;6.1593E-5;2.9E-7;0;Orbcomm
14.32821037;0.0002227;45.0091;278.455;345.0594;15.0186;6.1695E-5;2.9E-7;0;Orbcomm
14.32821318;0.0002162;45.0091;275.1773;347.5333;12.5459;6.056E-5;2.6E-7;0;Orbcomm
14.32821422;0.0002137;45.0091;273.8663;348.669;11.4108;6.1239E-5;2.8E-7;0;Orbcomm
14.32821836;0.0002042;45.0091;268.9497;353.038;7.0438;6.3698E-5;3.5E-7;0;Orbcomm
14.32821836;0.0002042;45.0091;268.9497;353.038;7.0438;6.3698E-5;3.5E-7;0;Orbcomm
14.32822182;0.0001959;45.0091;264.3609;357.1664;2.917;6.5645E-5;4.0E-7;0;Orbcomm
